NORAD_CAT_ID,OBJECT_NAME,OBJECT_TYPE,EPOCH,MEAN_MOTION,ECCENTRICITY,INCLINATION,RA_OF_ASC_NODE,ARG_OF_PERICENTER,MEAN_ANOMALY,BSTAR,MEAN_MOTION_DOT,MEAN_MOTION_DDOT,TLE_LINE0,TLE_LINE1,TLE_LINE2,SEMIMAJOR_AXIS,PERIOD,APOGEE,PERIGEE,DECAYED
53833.0,STARLINK-4771,PAYLOAD,2023-09-27 12:25:03,15.0883993,0.0001481,53.2184,358.0811,94.7241,265.3921,0.00065102,0.00010088,0.0,0 STARLINK-4771,1 53833U 22114R   23270.51739680  .00010088  00000-0  65102-3 0  9999,2 53833  53.2184 358.0811 0001481  94.7241 265.3921 15.08839930 57842,6917.881,95.438,540.77,538.721,0.0
53833.0,STARLINK-4771,PAYLOAD,2023-09-28 12:15:50,15.08834199,0.0001357,53.2178,353.6224,92.9025,267.2123,4.7167e-05,4.63e-06,0.0,0 STARLINK-4771,1 53833U 22114R   23271.51100388  .00000463  00000-0  47167-4 0  9995,2 53833  53.2178 353.6224 0001357  92.9025 267.2123 15.08834199 57450,6917.898,95.438,540.702,538.824,0.0
53833.0,STARLINK-4771,PAYLOAD,2023-09-29 10:31:14,15.08842432,0.0001391,53.2178,349.46,93.2842,266.831,0.00033347,5.024e-05,0.0,0 STARLINK-4771,1 53833U 22114R   23272.43836446  .00005024  00000-0  33347-3 0  9990,2 53833  53.2178 349.4600 0001391  93.2842 266.8310 15.08842432 58138,6917.873,95.437,540.7,538.776,0.0
53833.0,STARLINK-4771,PAYLOAD,2023-09-30 15:08:10,15.08857965,0.0001531,53.2182,344.1074,96.498,263.6187,0.00033416,5.037e-05,0.0,0 STARLINK-4771,1 53833U 22114R   23273.63067532  .00005037  00000-0  33416-3 0  9996,2 53833  53.2182 344.1074 0001531  96.4980 263.6187 15.08857965 57777,6917.825,95.436,540.75,538.631,0.0
53833.0,STARLINK-4771,PAYLOAD,2023-10-01 03:51:15,15.0884611,0.0002029,53.2188,341.728,96.3645,263.7578,5.0779e-06,-2.07e-06,0.0,0 STARLINK-4771,1 53833U 22114R   23274.16059801 -.00000207  00000-0  50779-5 0  9993,2 53833  53.2188 341.7280 0002029  96.3645 263.7578 15.08846110 57859,6917.862,95.437,541.13,538.323,0.0
53833.0,STARLINK-4771,PAYLOAD,2023-10-01 11:48:11,15.08843297,0.0001668,53.2191,340.2431,95.2863,264.832,-8.1571e-06,-4.18e-06,0.0,0 STARLINK-4771,1 53833U 22114R   23274.49179958 -.00000418  00000-0 -81571-5 0  9994,2 53833  53.2191 340.2431 0001668  95.2863 264.8320 15.08843297 58449,6917.87,95.437,540.889,538.581,0.0
53833.0,STARLINK-4771,PAYLOAD,2023-10-01 21:20:30,15.08836586,0.000149,53.2169,338.457,83.3614,276.7547,-6.3974e-05,-1.306e-05,0.0,0 STARLINK-4771,1 53833U 22114R   23274.88924324 -.00001306  00000-0 -63974-4 0  9995,2 53833  53.2169 338.4570 0001490  83.3614 276.7547 15.08836586 58505,6917.891,95.438,540.787,538.725,0.0
53833.0,STARLINK-4771,PAYLOAD,2023-10-02 11:38:59,15.08833892,0.0001689,53.2181,335.7809,91.6115,268.5071,-0.00012844,-2.331e-05,0.0,0 STARLINK-4771,1 53833U 22114R   23275.48540879 -.00002331  00000-0 -12844-3 0  9999,2 53833  53.2181 335.7809 0001689  91.6115 268.5071 15.08833892 58599,6917.899,95.438,540.932,538.596,0.0
53833.0,STARLINK-4771,PAYLOAD,2023-10-03 05:08:14,15.08840609,0.0001679,53.2177,332.5107,89.6106,270.5079,0.00033019,4.971e-05,0.0,0 STARLINK-4771,1 53833U 22114R   23276.21405105  .00004971  00000-0  33019-3 0  9990,2 53833  53.2177 332.5107 0001679  89.6106 270.5079 15.08840609 58164,6917.879,95.438,540.905,538.582,0.0
53833.0,STARLINK-4771,PAYLOAD,2023-10-03 11:29:46,15.08855576,0.0001484,53.2164,331.321,92.3591,267.7571,0.00096098,0.00015046,0.0,0 STARLINK-4771,1 53833U 22114R   23276.47900970  .00015046  00000-0  96098-3 0  9999,2 53833  53.2164 331.3210 0001484  92.3591 267.7571 15.08855576 58743,6917.833,95.437,540.724,538.671,0.0
53833.0,STARLINK-4771,PAYLOAD,2023-10-04 09:45:10,15.08850047,0.0001634,53.2168,327.1573,86.4126,273.7053,0.00042653,6.509e-05,0.0,0 STARLINK-4771,1 53833U 22114R   23277.40637092  .00006509  00000-0  42653-3 0  9997,2 53833  53.2168 327.1573 0001634  86.4126 273.7053 15.08850047 58343,6917.85,95.437,540.845,538.584,0.0
53833.0,STARLINK-4771,PAYLOAD,2023-10-04 20:52:52,15.08844915,0.0001609,53.2163,325.0759,84.963,275.1545,0.00025157,3.719e-05,0.0,0 STARLINK-4771,1 53833U 22114R   23277.87005134  .00003719  00000-0  25157-3 0  9994,2 53833  53.2163 325.0759 0001609  84.9630 275.1545 15.08844915 58952,6917.865,95.437,540.843,538.617,0.0
53833.0,STARLINK-4771,PAYLOAD,2023-10-05 03:14:25,15.08841309,0.000174,53.2171,323.8869,88.5433,271.5759,0.00012325,1.674e-05,0.0,0 STARLINK-4771,1 53833U 22114R   23278.13501327  .00001674  00000-0  12325-3 0  9990,2 53833  53.2171 323.8869 0001740  88.5433 271.5759 15.08841309 58452,6917.876,95.437,540.945,538.538,0.0
53833.0,STARLINK-4771,PAYLOAD,2023-10-05 09:35:57,15.08845688,0.0001714,53.2174,322.6975,89.894,270.2248,0.00018706,2.691e-05,0.0,0 STARLINK-4771,1 53833U 22114R   23278.39997171  .00002691  00000-0  18706-3 0  9993,2 53833  53.2174 322.6975 0001714  89.8940 270.2248 15.08845688 59036,6917.863,95.437,540.914,538.542,0.0
53833.0,STARLINK-4771,PAYLOAD,2023-10-05 12:46:43,15.08846124,0.0001709,53.2177,322.1028,90.9434,269.1754,0.00017678,2.527e-05,0.0,0 STARLINK-4771,1 53833U 22114R   23278.53245124  .00002527  00000-0  17678-3 0  9998,2 53833  53.2177 322.1028 0001709  90.9434 269.1754 15.08846124 59055,6917.862,95.437,540.909,538.544,0.0
53833.0,STARLINK-4771,PAYLOAD,2023-10-06 09:26:44,15.08843806,0.0001619,53.2174,318.237,88.7379,271.3799,0.00011026,1.467e-05,0.0,0 STARLINK-4771,1 53833U 22114R   23279.39357255  .00001467  00000-0  11026-3 0  9995,2 53833  53.2174 318.2370 0001619  88.7379 271.3799 15.08843806 58643,6917.869,95.437,540.854,538.614,0.0
53833.0,STARLINK-4771,PAYLOAD,2023-10-07 07:42:08,15.08848326,0.0001767,53.2175,314.0745,88.4558,271.6637,-0.00019399,-3.375e-05,0.0,0 STARLINK-4771,1 53833U 22114R   23280.32092940 -.00003375  00000-0 -19399-3 0  9990,2 53833  53.2175 314.0745 0001767  88.4558 271.6637 15.08848326 59326,6917.855,95.437,540.942,538.498,0.0
53833.0,STARLINK-4771,PAYLOAD,2023-10-07 18:49:50,15.08839178,0.0001653,53.217,311.9927,89.5682,270.5499,6.5026e-05,7.47e-06,0.0,0 STARLINK-4771,1 53833U 22114R   23280.78461578  .00000747  00000-0  65026-4 0  9994,2 53833  53.2170 311.9927 0001653  89.5682 270.5499 15.08839178 58859,6917.883,95.438,540.891,538.604,0.0
53833.0,STARLINK-4771,PAYLOAD,2023-10-08 09:08:18,15.08848079,0.0002026,53.2187,309.318,105.2668,254.8548,6.6377e-05,7.69e-06,0.0,0 STARLINK-4771,1 53833U 22114R   23281.38077181  .00000769  00000-0  66377-4 0  9998,2 53833  53.2187 309.3180 0002026 105.2668 254.8548 15.08848079 59484,6917.856,95.437,541.122,538.319,0.0
53833.0,STARLINK-4771,PAYLOAD,2023-10-08 18:40:37,15.08842101,0.0001646,53.2181,307.5346,102.5501,257.5675,7.597e-05,9.21e-06,0.0,0 STARLINK-4771,1 53833U 22114R   23281.77821535  .00000921  00000-0  75970-4 0  9990,2 53833  53.2181 307.5346 0001646 102.5501 257.5675 15.08842101 59543,6917.874,95.437,540.878,538.6,0.0
53833.0,STARLINK-4771,PAYLOAD,2023-10-09 02:37:33,15.08836116,0.0001709,53.2184,306.0475,95.9241,264.1946,7.3042e-05,8.74e-06,0.0,0 STARLINK-4771,1 53833U 22114R   23282.10942071  .00000874  00000-0  73042-4 0  9992,2 53833  53.2184 306.0475 0001709  95.9241 264.1946 15.08836116 59059,6917.892,95.438,540.94,538.575,0.0
53833.0,STARLINK-4771,PAYLOAD,2023-10-09 08:59:06,15.0884015,0.0001705,53.2183,304.8583,95.4371,264.6815,9.9916e-05,1.302e-05,0.0,0 STARLINK-4771,1 53833U 22114R   23282.37437786  .00001302  00000-0  99916-4 0  9998,2 53833  53.2183 304.8583 0001705  95.4371 264.6815 15.08840150 59636,6917.88,95.438,540.924,538.565,0.0
53833.0,STARLINK-4771,PAYLOAD,2023-10-10 10:25:15,15.08853916,0.0001502,53.217,300.0984,96.817,263.2993,0.00017695,2.53e-05,0.0,0 STARLINK-4771,1 53833U 22114R   23283.43420803  .00002530  00000-0  17695-3 0  9995,2 53833  53.2170 300.0984 0001502  96.8170 263.2993 15.08853916 59256,6917.838,95.437,540.742,538.664,0.0
53833.0,STARLINK-4771,PAYLOAD,2023-10-10 18:22:12,15.08833212,0.0001973,53.2178,298.6125,85.429,274.6928,-3.9478e-05,-9.16e-06,0.0,0 STARLINK-4771,1 53833U 22114R   23283.76542201 -.00000916  00000-0 -39478-4 0  9990,2 53833  53.2178 298.6125 0001973  85.4290 274.6928 15.08833212 59309,6917.901,95.438,541.131,538.401,0.0
53833.0,STARLINK-4771,PAYLOAD,2023-10-11 10:16:04,15.0883739,0.0001444,53.2166,295.6368,85.5521,274.5636,4.0163e-05,3.51e-06,0.0,0 STARLINK-4771,1 53833U 22114R   23284.42782497  .00000351  00000-0  40163-4 0  9991,2 53833  53.2166 295.6368 0001444  85.5521 274.5636 15.08837390 59949,6917.888,95.438,540.752,538.754,0.0
53833.0,STARLINK-4771,PAYLOAD,2023-10-12 00:34:31,15.08846194,0.0001531,53.2169,292.9606,91.0299,269.0869,4.8333e-05,4.81e-06,0.0,0 STARLINK-4771,1 53833U 22114R   23285.02398133  .00000481  00000-0  48333-4 0  9999,2 53833  53.2169 292.9606 0001531  91.0299 269.0869 15.08846194 59497,6917.861,95.437,540.786,538.667,0.0
53833.0,STARLINK-4771,PAYLOAD,2023-10-12 06:56:04,15.08849304,0.0001568,53.2157,291.7698,93.8974,266.2197,0.00018649,2.682e-05,0.0,0 STARLINK-4771,1 53833U 22114R   23285.28893837  .00002682  00000-0  18649-3 0  9999,2 53833  53.2157 291.7698 0001568  93.8974 266.2197 15.08849304 60077,6917.852,95.437,540.802,538.632,0.0
53833.0,STARLINK-4771,PAYLOAD,2023-10-12 18:03:46,15.08850313,0.0001454,53.2154,289.6891,92.9067,267.2092,0.0001808,2.591e-05,0.0,0 STARLINK-4771,1 53833U 22114R   23285.75261740  .00002591  00000-0  18080-3 0  9991,2 53833  53.2154 289.6891 0001454  92.9067 267.2092 15.08850313 60147,6917.849,95.437,540.72,538.708,0.0
53833.0,STARLINK-4771,PAYLOAD,2023-10-13 03:36:05,15.08836553,0.0001614,53.2159,287.905,89.4322,270.6855,0.00015434,2.169e-05,0.0,0 STARLINK-4771,1 53833U 22114R   23286.15006611  .00002169  00000-0  15434-3 0  9991,2 53833  53.2159 287.9050 0001614  89.4322 270.6855 15.08836553 59663,6917.891,95.438,540.872,538.639,0.0
53833.0,STARLINK-4771,PAYLOAD,2023-10-13 09:57:37,15.08847268,0.0001827,53.2167,286.7139,102.4697,257.6499,0.00020968,3.051e-05,0.0,0 STARLINK-4771,1 53833U 22114R   23286.41501995  .00003051  00000-0  20968-3 0  9994,2 53833  53.2167 286.7139 0001827 102.4697 257.6499 15.08847268 59703,6917.858,95.437,540.987,538.459,0.0
